OBJECT_NAME,OBJECT_ID,EPOCH,MEAN_MOTION,ECCENTRICITY,INCLINATION,RA_OF_ASC_NODE,ARG_OF_PERICENTER,MEAN_ANOMALY,EPHEMERIS_TYPE,CLASSIFICATION_TYPE,NORAD_CAT_ID,ELEMENT_SET_NO,REV_AT_EPOCH,BSTAR,MEAN_MOTION_DOT,MEAN_MOTION_DDOT
KUIPER-00610,2026-118AB,2026-06-05T06:00:04.999968,15.38022602,.0002976,51.8711,110.9489,94.3671,15.4480,0,U,69292,999,155,.11805988E-2,.44737E-3,0
KUIPER-00613,2026-118AC,2026-06-05T06:00:04.999968,15.35652102,.00105375,51.8617,111.0535,143.9804,279.9199,0,U,69293,999,130,.15220737E-2,.53659E-3,0
KUIPER-00618,2026-118AD,2026-06-05T06:00:04.999968,15.38427433,.00022022,51.8711,110.9295,55.9472,62.8251,0,U,69294,999,130,.12202141E-2,.4688E-3,0
KUIPER-00620,2026-118AE,2026-06-05T06:00:04.999968,15.38106300,.00030346,51.8706,110.9465,79.3935,32.4095,0,U,69295,999,209,.11842825E-2,.45002E-3,0
STARLINK-37501,2026-119A,2026-06-05T06:00:04.999968,15.89524624,.00010927,97.2836,181.3875,83.9607,276.5706,0,U,69296,999,197,-.88007019E-2,-.2525046E-1,.16578985E-2
STARLINK-37496,2026-119B,2026-06-05T06:00:04.999968,15.89774185,.0001076,97.2834,181.3885,78.3083,284.4614,0,U,69297,999,197,-.85829754E-2,-.2493746E-1,.1622551E-2
STARLINK-37519,2026-119C,2026-06-05T06:00:04.999968,15.90182687,.00010731,97.2834,181.3908,88.1605,280.2948,0,U,69298,999,197,-.84047961E-2,-.2492595E-1,.16282336E-2
STARLINK-37455,2026-119D,2026-06-05T06:00:04.999968,15.90008715,.00009951,97.2834,181.3894,80.8125,284.4249,0,U,69299,999,197,-.84386901E-2,-.2480921E-1,.16104486E-2
STARLINK-37456,2026-119E,2026-06-05T06:00:04.999968,15.90418877,.00010837,97.2834,181.3916,83.9848,286.5699,0,U,69300,999,197,-.81781023E-2,-.2454697E-1,.15845908E-2
STARLINK-37630,2026-119F,2026-06-05T06:00:04.999968,15.90643318,.00010927,97.2835,181.3927,85.7472,287.1891,0,U,69301,999,213,-.80495206E-2,-.2443743E-1,.15747303E-2
STARLINK-37804,2026-119G,2026-06-05T06:00:04.999968,15.90859368,.00010833,97.2834,181.3935,82.4322,292.9562,0,U,69302,999,213,-.79269064E-2,-.2433078E-1,.15651016E-2
STARLINK-37730,2026-119H,2026-06-05T06:00:04.999968,15.91076309,.00010175,97.2834,181.3946,72.3185,305.4560,0,U,69303,999,213,-.7816571E-2,-.2425825E-1,.15597447E-2
STARLINK-37731,2026-119J,2026-06-05T06:00:04.999968,15.91291150,.00010934,97.2833,181.3952,83.5907,296.3343,0,U,69304,999,213,-.76453431E-2,-.2399004E-1,.15301255E-2
STARLINK-37734,2026-119K,2026-06-05T06:00:04.999968,15.91497929,.00010201,97.2836,181.3963,83.8006,298.5466,0,U,69305,999,213,-.75394999E-2,-.2390927E-1,.1523602E-2
STARLINK-37701,2026-119L,2026-06-05T06:00:04.999968,15.91708423,.00010566,97.2834,181.3969,77.8517,306.4003,0,U,69306,999,213,-.73588117E-2,-.2359156E-1,.14881701E-2
STARLINK-37732,2026-119M,2026-06-05T06:00:04.999968,15.91909357,.00011172,97.2834,181.3982,79.0791,307.4040,0,U,69307,999,213,-.72384512E-2,-.2344727E-1,.14738898E-2
STARLINK-37689,2026-119N,2026-06-05T06:00:04.999968,15.92109806,.00010612,97.2831,181.3987,72.4136,316.0369,0,U,69308,999,213,-.70813976E-2,-.2317817E-1,.14446443E-2
STARLINK-37619,2026-119P,2026-06-05T06:00:04.999968,15.92309404,.00010571,97.2832,181.3997,78.3745,312.1688,0,U,69309,999,213,-.69637355E-2,-.2302977E-1,.14300088E-2
STARLINK-37794,2026-119Q,2026-06-05T06:00:04.999968,15.92497306,.00009706,97.2833,181.4006,87.2691,305.2201,0,U,69310,999,213,-.68026104E-2,-.2271874E-1,.13960047E-2
STARLINK-37795,2026-119R,2026-06-05T06:00:04.999968,15.92691581,.00010537,97.2833,181.4013,71.4167,323.1832,0,U,69311,999,213,-.67035495E-2,-.2261506E-1,.13867365E-2
STARLINK-37790,2026-119S,2026-06-05T06:00:04.999968,15.92872834,.0001084,97.2830,181.4024,68.9857,327.6098,0,U,69312,999,213,-.65732569E-2,-.2238698E-1,.13627467E-2
STARLINK-37676,2026-119T,2026-06-05T06:00:04.999968,15.93060405,.00010584,97.2832,181.4031,77.0966,321.5830,0,U,69313,999,213,-.64807176E-2,-.2228868E-1,.1354071E-2
STARLINK-37617,2026-119U,2026-06-05T06:00:04.999968,15.93241637,.00011694,97.2831,181.4037,72.7800,328.1531,0,U,69314,999,213,-.63924965E-2,-.2219472E-1,.13458223E-2
STARLINK-37627,2026-119V,2026-06-05T06:00:04.999968,15.93419062,.00010434,97.2831,181.4048,75.5847,327.2454,0,U,69315,999,213,-.62738537E-2,-.2198696E-1,.13243948E-2
STARLINK-37738,2026-119W,2026-06-05T06:00:04.999968,15.93602017,.00009879,97.2831,181.4058,86.0830,318.7463,0,U,69316,999,213,-.61886642E-2,-.2189745E-1,.1316734E-2
STARLINK-37799,2026-119X,2026-06-05T06:00:04.999968,15.93777440,.00010987,97.2830,181.4067,65.4957,341.4437,0,U,69317,999,208,-.61057623E-2,-.2180461E-1,.13085997E-2
STARLINK-37802,2026-119Y,2026-06-05T06:00:04.999968,15.93943799,.00010982,97.2831,181.4076,75.9803,332.9354,0,U,69318,999,213,-.59938851E-2,-.2159479E-1,.12870095E-2
STARLINK-37803,2026-119Z,2026-06-05T06:00:04.999968,15.94116773,.00010617,97.2832,181.4084,67.8811,342.6454,0,U,69319,999,208,-.58884859E-2,-.2141061E-1,.12685615E-2
GUOWANG TEST OBJECT A,2026-120A,2026-06-05T01:25:17.711328,15.38754372,.00092749,54.9979,82.3518,287.9643,72.0373,0,U,69320,999,82,.308987E-3,.11639E-3,0
