KUIPER-00610            
1 69292U 26118AB  26156.25005787  .00044737  00000+0  11806-2 0  9992
2 69292  51.8711 110.9489 0002976  94.3671  15.4480 15.38022602  1551
KUIPER-00613            
1 69293U 26118AC  26156.25005787  .00053659  00000+0  15221-2 0  9991
2 69293  51.8617 111.0535 0010537 143.9804 279.9199 15.35652102  1300
KUIPER-00618            
1 69294U 26118AD  26156.25005787  .00046880  00000+0  12202-2 0  9996
2 69294  51.8711 110.9295 0002202  55.9472  62.8251 15.38427433  1308
KUIPER-00620            
1 69295U 26118AE  26156.25005787  .00045002  00000+0  11843-2 0  9992
2 69295  51.8706 110.9465 0003034  79.3935  32.4095 15.38106300  2093
STARLINK-37501          
1 69296U 26119A   26156.25005787 -.02525046  16579-2 -88007-2 0  9996
2 69296  97.2836 181.3875 0001092  83.9607 276.5706 15.89524624  1973
STARLINK-37496          
1 69297U 26119B   26156.25005787 -.02493746  16226-2 -85830-2 0  9998
2 69297  97.2834 181.3885 0001076  78.3083 284.4614 15.89774185  1976
STARLINK-37519          
1 69298U 26119C   26156.25005787 -.02492595  16282-2 -84048-2 0  9992
2 69298  97.2834 181.3908 0001073  88.1605 280.2948 15.90182687  1975
STARLINK-37455          
1 69299U 26119D   26156.25005787 -.02480921  16104-2 -84387-2 0  9992
2 69299  97.2834 181.3894 0000995  80.8125 284.4249 15.90008715  1977
STARLINK-37456          
1 69300U 26119E   26156.25005787 -.02454697  15846-2 -81781-2 0  9993
2 69300  97.2834 181.3916 0001083  83.9848 286.5699 15.90418877  1976
STARLINK-37630          
1 69301U 26119F   26156.25005787 -.02443743  15747-2 -80495-2 0  9995
2 69301  97.2835 181.3927 0001092  85.7472 287.1891 15.90643318  2133
STARLINK-37804          
1 69302U 26119G   26156.25005787 -.02433078  15651-2 -79269-2 0  9997
2 69302  97.2834 181.3935 0001083  82.4322 292.9562 15.90859368  2133
STARLINK-37730          
1 69303U 26119H   26156.25005787 -.02425825  15597-2 -78166-2 0  9993
2 69303  97.2834 181.3946 0001017  72.3185 305.4560 15.91076309  2133
STARLINK-37731          
1 69304U 26119J   26156.25005787 -.02399004  15301-2 -76453-2 0  9993
2 69304  97.2833 181.3952 0001093  83.5907 296.3343 15.91291150  2130
STARLINK-37734          
1 69305U 26119K   26156.25005787 -.02390927  15236-2 -75395-2 0  9990
2 69305  97.2836 181.3963 0001020  83.8006 298.5466 15.91497929  2131
STARLINK-37701          
1 69306U 26119L   26156.25005787 -.02359156  14882-2 -73588-2 0  9998
2 69306  97.2834 181.3969 0001056  77.8517 306.4003 15.91708423  2135
STARLINK-37732          
1 69307U 26119M   26156.25005787 -.02344727  14739-2 -72385-2 0  9992
2 69307  97.2834 181.3982 0001117  79.0791 307.4040 15.91909357  2138
STARLINK-37689          
1 69308U 26119N   26156.25005787 -.02317817  14446-2 -70814-2 0  9993
2 69308  97.2831 181.3987 0001061  72.4136 316.0369 15.92109806  2131
STARLINK-37619          
1 69309U 26119P   26156.25005787 -.02302977  14300-2 -69637-2 0  9995
2 69309  97.2832 181.3997 0001057  78.3745 312.1688 15.92309404  2137
STARLINK-37794          
1 69310U 26119Q   26156.25005787 -.02271874  13960-2 -68026-2 0  9990
2 69310  97.2833 181.4006 0000970  87.2691 305.2201 15.92497306  2137
STARLINK-37795          
1 69311U 26119R   26156.25005787 -.02261506  13867-2 -67035-2 0  9997
2 69311  97.2833 181.4013 0001053  71.4167 323.1832 15.92691581  2132
STARLINK-37790          
1 69312U 26119S   26156.25005787 -.02238698  13627-2 -65733-2 0  9991
2 69312  97.2830 181.4024 0001084  68.9857 327.6098 15.92872834  2138
STARLINK-37676          
1 69313U 26119T   26156.25005787 -.02228868  13541-2 -64807-2 0  9996
2 69313  97.2832 181.4031 0001058  77.0966 321.5830 15.93060405  2133
STARLINK-37617          
1 69314U 26119U   26156.25005787 -.02219472  13458-2 -63925-2 0  9995
2 69314  97.2831 181.4037 0001169  72.7800 328.1531 15.93241637  2130
STARLINK-37627          
1 69315U 26119V   26156.25005787 -.02198696  13244-2 -62739-2 0  9995
2 69315  97.2831 181.4048 0001043  75.5847 327.2454 15.93419062  2139
STARLINK-37738          
1 69316U 26119W   26156.25005787 -.02189745  13167-2 -61887-2 0  9998
2 69316  97.2831 181.4058 0000987  86.0830 318.7463 15.93602017  2135
STARLINK-37799          
1 69317U 26119X   26156.25005787 -.02180461  13086-2 -61058-2 0  9995
2 69317  97.2830 181.4067 0001098  65.4957 341.4437 15.93777440  2081
STARLINK-37802          
1 69318U 26119Y   26156.25005787 -.02159479  12870-2 -59939-2 0  9996
2 69318  97.2831 181.4076 0001098  75.9803 332.9354 15.93943799  2130
STARLINK-37803          
1 69319U 26119Z   26156.25005787 -.02141061  12686-2 -58885-2 0  9999
2 69319  97.2832 181.4084 0001061  67.8811 342.6454 15.94116773  2088
GUOWANG TEST OBJECT A   
1 69320U 26120A   26156.05923277  .00011639  00000+0  30899-3 0  9997
2 69320  54.9979  82.3518 0009274 287.9643  72.0373 15.38754372   820
